STARLINK-1067_new
1 14771C 19074BL  21326.16440072 -.00010955  00000-0 -73402-3 0  3267
2 14771  53.0546  68.0040 0001099  78.2191 241.1589 15.06407439    13
STARLINK-1067_old
1 24771C 19074BL  21325.12118803  .00005827  00000-0  39036-3 0  3250
2 24771  53.0543  72.6870 0001054  79.1034 339.7295 15.06398874    19
